0 COSMOS 931
1 10150U 77068A   13284.06779283  .00000282  00000-0  00000+0 0  4058
2 10150 069.6731 308.0995 5502314 094.7226 326.8668 02.00331629265845
0 COSMOS 931
1 10150U 77068A   13284.08939170  .00000283  00000-0  00000+0 0  4065
2 10150 069.6754 308.0890 5501862 094.7105 342.4466 02.00331323265848
0 COSMOS 931
1 10150U 77068A   13290.55707547  .00000283  00000-0  00000+0 0  4076
2 10150 069.6746 307.7559 5499672 094.5208 326.9642 02.00334676265975
0 COSMOS 931
1 10150U 77068A   13290.55708649  .00000000  00000-0  10000-3 0  4083
2 10150 069.6751 307.7541 5501193 094.5178 326.9705 02.00335877265974
0 COSMOS 931
1 10150U 77068A   13290.64167225  .00000283  00000-0  00000+0 0  4080
2 10150 069.6755 307.7479 5499763 094.5127 027.9718 02.00334844265976
0 COSMOS 931
1 10150U 77068A   13294.55045267  .00000340  00000-0  00000+0 0  4090
2 10150 069.6738 307.5428 5498530 094.4091 327.0347 02.00336815266051
0 COSMOS 931
1 10150U 77068A   13294.63532970  .00000341  00000-0  00000+0 0  4104
2 10150 069.6755 307.5401 5498397 094.3917 028.2569 02.00337409266054
